[{"OBJECT_NAME":"GJZ 01","OBJECT_ID":"2024-238A","EPOCH":"2026-03-09T22:58:31.569312","MEAN_MOTION":13.75204151,"ECCENTRICITY":0.00225262,"INCLINATION":59.9119,"RA_OF_ASC_NODE":227.0135,"ARG_OF_PERICENTER":155.3106,"MEAN_ANOMALY":204.8985,"EPHEMERIS_TYPE":0,"CLASSIFICATION_TYPE":"U","NORAD_CAT_ID":62290,"ELEMENT_SET_NO":999,"REV_AT_EPOCH":6195,"BSTAR":0.00017039412,"MEAN_MOTION_DOT":4.5e-7,"MEAN_MOTION_DDOT":0},{"OBJECT_NAME":"THORAD AGENA D DEB","OBJECT_ID":"1970-025CD","EPOCH":"2026-03-09T17:41:57.928992","MEAN_MOTION":13.96519331,"ECCENTRICITY":0.01223086,"INCLINATION":99.9573,"RA_OF_ASC_NODE":117.179,"ARG_OF_PERICENTER":113.1323,"MEAN_ANOMALY":248.2779,"EPHEMERIS_TYPE":0,"CLASSIFICATION_TYPE":"U","NORAD_CAT_ID":4719,"ELEMENT_SET_NO":999,"REV_AT_EPOCH":82871,"BSTAR":0.00020508224,"MEAN_MOTION_DOT":2.52e-6,"MEAN_MOTION_DDOT":0}]
